{
  "type": "FeatureCollection",
  "features": [
    {
      "type": "Feature",
      "properties": {
        "norad_id": 66615,
        "name": "STARLINK-35988",
        "group": "last-30-days",
        "lat": -42.341691676372164,
        "lon": 150.16292310490374,
        "alt_km": 334.1311423897432,
        "timestamp": "2025-12-02T17:49:10.801172+00:00",
        "meta_object_name": "STARLINK-35988",
        "meta_object_id": "2025-270AD",
        "meta_epoch": "2025-12-02T12:00:05.998752",
        "meta_mean_motion": 15.80456272,
        "meta_eccentricity": 0.000173,
        "meta_inclination": 42.9991,
        "meta_ra_of_asc_node": 253.6976,
        "meta_arg_of_pericenter": 257.2781,
        "meta_mean_anomaly": 63.3134,
        "meta_ephemeris_type": 0,
        "meta_classification_type": "U",
        "meta_norad_cat_id": 66615,
        "meta_element_set_no": 999,
        "meta_rev_at_epoch": 259,
        "meta_bstar": -0.010932,
        "meta_mean_motion_dot": -0.01872267,
        "meta_mean_motion_ddot": 0,
        "tle_line1": "1 66615U 25270AD  25336.50006943 -.01872267  00000+0 -10932-1 0  9996",
        "tle_line2": "2 66615  42.9991 253.6976 0001730 257.2781  63.3134 15.80456272  2597"
      },
      "geometry": {
        "type": "Point",
        "coordinates": [
          150.16292310490374,
          -42.341691676372164
        ]
      }
    },
    {
      "type": "Feature",
      "properties": {
        "norad_id": 66616,
        "name": "STARLINK-35391",
        "group": "last-30-days",
        "lat": -42.774687631429686,
        "lon": 155.37619972634312,
        "alt_km": 334.14839363759256,
        "timestamp": "2025-12-02T17:49:10.801184+00:00",
        "meta_object_name": "STARLINK-35391",
        "meta_object_id": "2025-270AE",
        "meta_epoch": "2025-12-02T12:00:05.998752",
        "meta_mean_motion": 15.80469027,
        "meta_eccentricity": 0.0001699,
        "meta_inclination": 42.9991,
        "meta_ra_of_asc_node": 253.6879,
        "meta_arg_of_pericenter": 259.6996,
        "meta_mean_anomaly": 64.7595,
        "meta_ephemeris_type": 0,
        "meta_classification_type": "U",
        "meta_norad_cat_id": 66616,
        "meta_element_set_no": 999,
        "meta_rev_at_epoch": 286,
        "meta_bstar": -0.010978,
        "meta_mean_motion_dot": -0.0188019,
        "meta_mean_motion_ddot": 0,
        "tle_line1": "1 66616U 25270AE  25336.50006943 -.01880190  00000+0 -10978-1 0  9991",
        "tle_line2": "2 66616  42.9991 253.6879 0001699 259.6996  64.7595 15.80469027  2866"
      },
      "geometry": {
        "type": "Point",
        "coordinates": [
          155.37619972634312,
          -42.774687631429686
        ]
      }
    },
    {
      "type": "Feature",
      "properties": {
        "norad_id": 66645,
        "name": "SHENZHOU-22",
        "group": "last-30-days",
        "lat": 33.09013184960169,
        "lon": -150.1851755791975,
        "alt_km": 393.2364790034226,
        "timestamp": "2025-12-02T17:49:10.801196+00:00",
        "meta_object_name": "SHENZHOU-22",
        "meta_object_id": "2025-272A",
        "meta_epoch": "2025-12-02T06:31:22.828800",
        "meta_mean_motion": 15.58517706,
        "meta_eccentricity": 0.00102589,
        "meta_inclination": 41.4672,
        "meta_ra_of_asc_node": 80.2264,
        "meta_arg_of_pericenter": 312.0297,
        "meta_mean_anomaly": 47.9667,
        "meta_ephemeris_type": 0,
        "meta_classification_type": "U",
        "meta_norad_cat_id": 66645,
        "meta_element_set_no": 999,
        "meta_rev_at_epoch": 26240,
        "meta_bstar": 0.00032073258,
        "meta_mean_motion_dot": 0.00025017,
        "meta_mean_motion_ddot": 0,
        "tle_line1": "1 66645U 25272A   25336.27179200  .00025017  00000+0  32073-3 0  9994",
        "tle_line2": "2 66645  41.4672  80.2264 0010258 312.0297  47.9667 15.58517706262403"
      },
      "geometry": {
        "type": "Point",
        "coordinates": [
          -150.1851755791975,
          33.09013184960169
        ]
      }
    },
    {
      "type": "Feature",
      "properties": {
        "norad_id": 66646,
        "name": "CZ-2F R/B",
        "group": "last-30-days",
        "lat": -39.87061165707827,
        "lon": 2.924939057697711,
        "alt_km": 269.59546795249844,
        "timestamp": "2025-12-02T17:49:10.801206+00:00",
        "meta_object_name": "CZ-2F R/B",
        "meta_object_id": "2025-272B",
        "meta_epoch": "2025-11-26T11:17:54.506400",
        "meta_mean_motion": 16.01945612,
        "meta_eccentricity": 0.01210796,
        "meta_inclination": 41.4431,
        "meta_ra_of_asc_node": 114.9009,
        "meta_arg_of_pericenter": 133.7676,
        "meta_mean_anomaly": 227.3272,
        "meta_ephemeris_type": 0,
        "meta_classification_type": "U",
        "meta_norad_cat_id": 66646,
        "meta_element_set_no": 999,
        "meta_rev_at_epoch": 21,
        "meta_bstar": 0.00029319366,
        "meta_mean_motion_dot": 0.00449059,
        "meta_mean_motion_ddot": 7.567612e-06,
        "tle_line1": "1 66646U 25272B   25330.47076975  .00449059  75676-5  29319-3 0  9998",
        "tle_line2": "2 66646  41.4431 114.9009 0121079 133.7676 227.3272 16.01945612   217"
      },
      "geometry": {
        "type": "Point",
        "coordinates": [
          2.924939057697711,
          -39.87061165707827
        ]
      }
    },
    {
      "type": "Feature",
      "properties": {
        "norad_id": 66647,
        "name": "COSMOS 2597 (RODNIK-S 22)",
        "group": "last-30-days",
        "lat": 71.26403795102063,
        "lon": -44.4836601631354,
        "alt_km": 1494.6849277390238,
        "timestamp": "2025-12-02T17:49:10.801216+00:00",
        "meta_object_name": "COSMOS 2597 (RODNIK-S 22)",
        "meta_object_id": "2025-273A",
        "meta_epoch": "2025-12-02T11:37:44.827104",
        "meta_mean_motion": 12.41951048,
        "meta_eccentricity": 0.0008164,
        "meta_inclination": 82.4981,
        "meta_ra_of_asc_node": 292.8181,
        "meta_arg_of_pericenter": 313.1769,
        "meta_mean_anomaly": 46.8627,
        "meta_ephemeris_type": 0,
        "meta_classification_type": "U",
        "meta_norad_cat_id": 66647,
        "meta_element_set_no": 999,
        "meta_rev_at_epoch": 86,
        "meta_bstar": -4.4667e-05,
        "meta_mean_motion_dot": 4e-08,
        "meta_mean_motion_ddot": 0,
        "tle_line1": "1 66647U 25273A   25336.48454661  .00000004  00000+0 -44667-4 0  9990",
        "tle_line2": "2 66647  82.4981 292.8181 0008164 313.1769  46.8627 12.41951048   865"
      },
      "geometry": {
        "type": "Point",
        "coordinates": [
          -44.4836601631354,
          71.26403795102063
        ]
      }
    },
    {
      "type": "Feature",
      "properties": {
        "norad_id": 66648,
        "name": "COSMOS 2598 (RODNIK-S 23)",
        "group": "last-30-days",
        "lat": 77.90221063657512,
        "lon": -29.43039261115682,
        "alt_km": 1494.7000310904405,
        "timestamp": "2025-12-02T17:49:10.801226+00:00",
        "meta_object_name": "COSMOS 2598 (RODNIK-S 23)",
        "meta_object_id": "2025-273B",
        "meta_epoch": "2025-12-02T11:35:21.088608",
        "meta_mean_motion": 12.42252995,
        "meta_eccentricity": 0.0008246,
        "meta_inclination": 82.5022,
        "meta_ra_of_asc_node": 292.825,
        "meta_arg_of_pericenter": 301.8143,
        "meta_mean_anomaly": 58.2133,
        "meta_ephemeris_type": 0,
        "meta_classification_type": "U",
        "meta_norad_cat_id": 66648,
        "meta_element_set_no": 999,
        "meta_rev_at_epoch": 86,
        "meta_bstar": -0.00018952,
        "meta_mean_motion_dot": -1.6e-07,
        "meta_mean_motion_ddot": 0,
        "tle_line1": "1 66648U 25273B   25336.48288297 -.00000016  00000+0 -18952-3 0  9992",
        "tle_line2": "2 66648  82.5022 292.8250 0008246 301.8143  58.2133 12.42252995   866"
      },
      "geometry": {
        "type": "Point",
        "coordinates": [
          -29.43039261115682,
          77.90221063657512
        ]
      }
    },
    {
      "type": "Feature",
      "properties": {
        "norad_id": 66649,
        "name": "COSMOS 2599 (RODNIK-S 24)",
        "group": "last-30-days",
        "lat": 64.59955820603543,
        "lon": -51.2312209854179,
        "alt_km": 1494.6539717425667,
        "timestamp": "2025-12-02T17:49:10.801236+00:00",
        "meta_object_name": "COSMOS 2599 (RODNIK-S 24)",
        "meta_object_id": "2025-273C",
        "meta_epoch": "2025-12-02T11:39:57.769920",
        "meta_mean_motion": 12.41671799,
        "meta_eccentricity": 0.0008392,
        "meta_inclination": 82.5022,
        "meta_ra_of_asc_node": 292.8275,
        "meta_arg_of_pericenter": 323.3981,
        "meta_mean_anomaly": 36.6524,
        "meta_ephemeris_type": 0,
        "meta_classification_type": "U",
        "meta_norad_cat_id": 66649,
        "meta_element_set_no": 999,
        "meta_rev_at_epoch": 86,
        "meta_bstar": -5.7916e-05,
        "meta_mean_motion_dot": 2e-08,
        "meta_mean_motion_ddot": 0,
        "tle_line1": "1 66649U 25273C   25336.48608530  .00000002  00000+0 -57916-4 0  9997",
        "tle_line2": "2 66649  82.5022 292.8275 0008392 323.3981  36.6524 12.41671799   865"
      },
      "geometry": {
        "type": "Point",
        "coordinates": [
          -51.2312209854179,
          64.59955820603543
        ]
      }
    }
  ]
}